
#
# Loads ephemeris for ETALON-2 from an SP3 format file and compare to
# propagated ephemeris
#
# 2023/01/16
#

SimStart GD 2019  2 3  0  0  0.00;
SimDuration Days 2;
LeapSeconds 37;
EcfEciRate Minutes 240;

CelestialEphemerides moon sun mercury venus mars
                              jupiter saturn neptune uranus pluto;

DistanceUnits  Kilometers;
TimeUnits Seconds;
TLE etalon2;
1 20026U 89039C   19033.95028535 -.00000026  00000-0  00000+0 0  9990
2 20026  65.3179  42.1672 0017598 223.2941 334.1364  2.13204505231112
EphemerisFile nsgf_etalon2  SP3c Hermite nsgf.orb.etalon2.190209.v70.sp3;
TimeUnits Minutes;
OutputRate Minutes 5;
Command PrintRangeSpectrum nsgf_etalon2 etalon2 etalon2_rngfft;

